zip,Zipcode name,City,State,County Name
28315,"ABERDEEN, NC",ABERDEEN,NC,MOORE
27006,"ADVANCE, NC",ADVANCE,NC,DAVIE
27910,"AHOSKIE, NC",AHOSKIE,NC,HERTFORD
27201,"ALAMANCE, NC",ALAMANCE,NC,ALAMANCE
28001,"ALBEMARLE, NC",ALBEMARLE,NC,STANLY
28002,"ALBEMARLE, NC",ALBEMARLE,NC,STANLY
28508,"ALBERTSON, NC",ALBERTSON,NC,DUPLIN
28701,"ALEXANDER, NC",ALEXANDER,NC,BUNCOMBE
28006,"ALEXIS, NC",ALEXIS,NC,GASTON
28509,"ALLIANCE, NC",ALLIANCE,NC,PAMLICO
28702,"ALMOND, NC",ALMOND,NC,SWAIN
27202,"ALTAMAHAW, NC",ALTAMAHAW,NC,ALAMANCE
28901,"ANDREWS, NC",ANDREWS,NC,CHEROKEE
27501,"ANGIER, NC",ANGIER,NC,HARNETT
28007,"ANSONVILLE, NC",ANSONVILLE,NC,ANSON
27502,"APEX, NC",APEX,NC,WAKE
27523,"APEX, NC",APEX,NC,WAKE
27539,"APEX, NC",APEX,NC,WAKE
28510,"ARAPAHOE, NC",ARAPAHOE,NC,PAMLICO
27007,"ARARAT, NC",ARARAT,NC,SURRY
28704,"ARDEN, NC",ARDEN,NC,BUNCOMBE
28420,"ASH, NC",ASH,NC,BRUNSWICK
27203,"ASHEBORO, NC",ASHEBORO,NC,RANDOLPH
27204,"ASHEBORO, NC",ASHEBORO,NC,RANDOLPH
27205,"ASHEBORO, NC",ASHEBORO,NC,RANDOLPH
28801,"ASHEVILLE, NC",ASHEVILLE,NC,BUNCOMBE
28802,"ASHEVILLE, NC",ASHEVILLE,NC,BUNCOMBE
28803,"ASHEVILLE, NC",ASHEVILLE,NC,BUNCOMBE
28804,"ASHEVILLE, NC",ASHEVILLE,NC,BUNCOMBE
28805,"ASHEVILLE, NC",ASHEVILLE,NC,BUNCOMBE
28806,"ASHEVILLE, NC",ASHEVILLE,NC,BUNCOMBE
28810,"ASHEVILLE, NC",ASHEVILLE,NC,BUNCOMBE
28813,"ASHEVILLE, NC",ASHEVILLE,NC,BUNCOMBE
28814,"ASHEVILLE, NC",ASHEVILLE,NC,BUNCOMBE
28815,"ASHEVILLE, NC",ASHEVILLE,NC,BUNCOMBE
28816,"ASHEVILLE, NC",ASHEVILLE,NC,BUNCOMBE
28421,"ATKINSON, NC",ATKINSON,NC,PENDER
28511,"ATLANTIC, NC",ATLANTIC,NC,CARTERET
28512,"ATLANTIC BEACH, NC",ATLANTIC BEACH,NC,CARTERET
27805,"AULANDER, NC",AULANDER,NC,BERTIE
27806,"AURORA, NC",AURORA,NC,BEAUFORT
28318,"AUTRYVILLE, NC",AUTRYVILLE,NC,SAMPSON
27915,"AVON, NC",AVON,NC,DARE
28513,"AYDEN, NC",AYDEN,NC,PITT
27916,"AYDLETT, NC",AYDLETT,NC,CURRITUCK
28009,"BADIN, NC",BADIN,NC,STANLY
27503,"BAHAMA, NC",BAHAMA,NC,DURHAM
27807,"BAILEY, NC",BAILEY,NC,NASH
28705,"BAKERSVILLE, NC",BAKERSVILLE,NC,MITCHELL
28707,"BALSAM, NC",BALSAM,NC,JACKSON
28708,"BALSAM GROVE, NC",BALSAM GROVE,NC,TRANSYLVANIA
28604,"BANNER ELK, NC",BANNER ELK,NC,AVERY
27917,"BARCO, NC",BARCO,NC,CURRITUCK
28010,"BARIUM SPRINGS, NC",BARIUM SPRINGS,NC,IREDELL
28709,"BARNARDSVILLE, NC",BARNARDSVILLE,NC,BUNCOMBE
28319,"BARNESVILLE, NC",BARNESVILLE,NC,ROBESON
28710,"BAT CAVE, NC",BAT CAVE,NC,HENDERSON
27808,"BATH, NC",BATH,NC,BEAUFORT
27809,"BATTLEBORO, NC",BATTLEBORO,NC,EDGECOMBE
28515,"BAYBORO, NC",BAYBORO,NC,PAMLICO
27207,"BEAR CREEK, NC",BEAR CREEK,NC,CHATHAM
28516,"BEAUFORT, NC",BEAUFORT,NC,CARTERET
27009,"BELEWS CREEK, NC",BELEWS CREEK,NC,FORSYTH
27810,"BELHAVEN, NC",BELHAVEN,NC,BEAUFORT
27811,"BELLARTHUR, NC",BELLARTHUR,NC,PITT
28012,"BELMONT, NC",BELMONT,NC,GASTON
27919,"BELVIDERE, NC",BELVIDERE,NC,PERQUIMANS
27208,"BENNETT, NC",BENNETT,NC,CHATHAM
27504,"BENSON, NC",BENSON,NC,JOHNSTON
28016,"BESSEMER CITY, NC",BESSEMER CITY,NC,GASTON
27010,"BETHANIA, NC",BETHANIA,NC,FORSYTH
27812,"BETHEL, NC",BETHEL,NC,PITT
28518,"BEULAVILLE, NC",BEULAVILLE,NC,DUPLIN
27209,"BISCOE, NC",BISCOE,NC,MONTGOMERY
27813,"BLACK CREEK, NC",BLACK CREEK,NC,WILSON
28711,"BLACK MOUNTAIN, NC",BLACK MOUNTAIN,NC,BUNCOMBE
28320,"BLADENBORO, NC",BLADENBORO,NC,BLADEN
27212,"BLANCH, NC",BLANCH,NC,CASWELL
27814,"BLOUNTS CREEK, NC",BLOUNTS CREEK,NC,BEAUFORT
28605,"BLOWING ROCK, NC",BLOWING ROCK,NC,WATAUGA
28017,"BOILING SPRINGS, NC",BOILING SPRINGS,NC,CLEVELAND
28422,"BOLIVIA, NC",BOLIVIA,NC,BRUNSWICK
28423,"BOLTON, NC",BOLTON,NC,COLUMBUS
27213,"BONLEE, NC",BONLEE,NC,CHATHAM
28606,"BOOMER, NC",BOOMER,NC,WILKES
28607,"BOONE, NC",BOONE,NC,WATAUGA
28608,"BOONE, NC",BOONE,NC,WATAUGA
27011,"BOONVILLE, NC",BOONVILLE,NC,YADKIN
28018,"BOSTIC, NC",BOSTIC,NC,RUTHERFORD
28902,"BRASSTOWN, NC",BRASSTOWN,NC,CLAY
28712,"BREVARD, NC",BREVARD,NC,TRANSYLVANIA
28519,"BRIDGETON, NC",BRIDGETON,NC,CRAVEN
27505,"BROADWAY, NC",BROADWAY,NC,LEE
27214,"BROWNS SUMMIT, NC",BROWNS SUMMIT,NC,GUILFORD
28424,"BRUNSWICK, NC",BRUNSWICK,NC,COLUMBUS
28713,"BRYSON CITY, NC",BRYSON CITY,NC,SWAIN
27506,"BUIES CREEK, NC",BUIES CREEK,NC,HARNETT
27507,"BULLOCK, NC",BULLOCK,NC,GRANVILLE
27508,"BUNN, NC",BUNN,NC,FRANKLIN
28323,"BUNNLEVEL, NC",BUNNLEVEL,NC,HARNETT
28425,"BURGAW, NC",BURGAW,NC,PENDER
27215,"BURLINGTON, NC",BURLINGTON,NC,ALAMANCE
27216,"BURLINGTON, NC",BURLINGTON,NC,ALAMANCE
27217,"BURLINGTON, NC",BURLINGTON,NC,ALAMANCE
28714,"BURNSVILLE, NC",BURNSVILLE,NC,YANCEY
27509,"BUTNER, NC",BUTNER,NC,GRANVILLE
27920,"BUXTON, NC",BUXTON,NC,DARE
28467,"CALABASH, NC",CALABASH,NC,BRUNSWICK
28325,"CALYPSO, NC",CALYPSO,NC,DUPLIN
27921,"CAMDEN, NC",CAMDEN,NC,CAMDEN
28326,"CAMERON, NC",CAMERON,NC,HARNETT
28542,"CAMP LEJEUNE, NC",CAMP LEJEUNE,NC,ONSLOW
28547,"CAMP LEJEUNE, NC",CAMP LEJEUNE,NC,ONSLOW
28715,"CANDLER, NC",CANDLER,NC,BUNCOMBE
27229,"CANDOR, NC",CANDOR,NC,MONTGOMERY
28716,"CANTON, NC",CANTON,NC,HAYWOOD
28019,"CAROLEEN, NC",CAROLEEN,NC,RUTHERFORD
28428,"CAROLINA BEACH, NC",CAROLINA BEACH,NC,NEW HANOVER
27510,"CARRBORO, NC",CARRBORO,NC,ORANGE
28327,"CARTHAGE, NC",CARTHAGE,NC,MOORE
27511,"CARY, NC",CARY,NC,WAKE
27512,"CARY, NC",CARY,NC,WAKE
27513,"CARY, NC",CARY,NC,WAKE
27518,"CARY, NC",CARY,NC,WAKE
27519,"CARY, NC",CARY,NC,WAKE
28020,"CASAR, NC",CASAR,NC,CLEVELAND
28717,"CASHIERS, NC",CASHIERS,NC,JACKSON
27816,"CASTALIA, NC",CASTALIA,NC,NASH
28429,"CASTLE HAYNE, NC",CASTLE HAYNE,NC,NEW HANOVER
28609,"CATAWBA, NC",CATAWBA,NC,CATAWBA
27230,"CEDAR FALLS, NC",CEDAR FALLS,NC,RANDOLPH
27231,"CEDAR GROVE, NC",CEDAR GROVE,NC,ORANGE
28520,"CEDAR ISLAND, NC",CEDAR ISLAND,NC,CARTERET
28718,"CEDAR MOUNTAIN, NC",CEDAR MOUNTAIN,NC,TRANSYLVANIA
28430,"CERRO GORDO, NC",CERRO GORDO,NC,COLUMBUS
28431,"CHADBOURN, NC",CHADBOURN,NC,COLUMBUS
27514,"CHAPEL HILL, NC",CHAPEL HILL,NC,ORANGE
27515,"CHAPEL HILL, NC",CHAPEL HILL,NC,ORANGE
27516,"CHAPEL HILL, NC",CHAPEL HILL,NC,ORANGE
27517,"CHAPEL HILL, NC",CHAPEL HILL,NC,ORANGE
27599,"CHAPEL HILL, NC",CHAPEL HILL,NC,ORANGE
28201,"CHARLOTTE, NC",CHARLOTTE,NC,MECKLENBURG
28202,"CHARLOTTE, NC",CHARLOTTE,NC,MECKLENBURG
28203,"CHARLOTTE, NC",CHARLOTTE,NC,MECKLENBURG
28204,"CHARLOTTE, NC",CHARLOTTE,NC,MECKLENBURG
28205,"CHARLOTTE, NC",CHARLOTTE,NC,MECKLENBURG
28206,"CHARLOTTE, NC",CHARLOTTE,NC,MECKLENBURG
28207,"CHARLOTTE, NC",CHARLOTTE,NC,MECKLENBURG
28208,"CHARLOTTE, NC",CHARLOTTE,NC,MECKLENBURG
28209,"CHARLOTTE, NC",CHARLOTTE,NC,MECKLENBURG
28210,"CHARLOTTE, NC",CHARLOTTE,NC,MECKLENBURG
28211,"CHARLOTTE, NC",CHARLOTTE,NC,MECKLENBURG
28212,"CHARLOTTE, NC",CHARLOTTE,NC,MECKLENBURG
28213,"CHARLOTTE, NC",CHARLOTTE,NC,MECKLENBURG
28214,"CHARLOTTE, NC",CHARLOTTE,NC,MECKLENBURG
28215,"CHARLOTTE, NC",CHARLOTTE,NC,MECKLENBURG
28216,"CHARLOTTE, NC",CHARLOTTE,NC,MECKLENBURG
28217,"CHARLOTTE, NC",CHARLOTTE,NC,MECKLENBURG
28218,"CHARLOTTE, NC",CHARLOTTE,NC,MECKLENBURG
28219,"CHARLOTTE, NC",CHARLOTTE,NC,MECKLENBURG
28220,"CHARLOTTE, NC",CHARLOTTE,NC,MECKLENBURG
28221,"CHARLOTTE, NC",CHARLOTTE,NC,MECKLENBURG
28222,"CHARLOTTE, NC",CHARLOTTE,NC,MECKLENBURG
28223,"CHARLOTTE, NC",CHARLOTTE,NC,MECKLENBURG
28224,"CHARLOTTE, NC",CHARLOTTE,NC,MECKLENBURG
28226,"CHARLOTTE, NC",CHARLOTTE,NC,MECKLENBURG
28227,"CHARLOTTE, NC",CHARLOTTE,NC,MECKLENBURG
28228,"CHARLOTTE, NC",CHARLOTTE,NC,MECKLENBURG
28229,"CHARLOTTE, NC",CHARLOTTE,NC,MECKLENBURG
28230,"CHARLOTTE, NC",CHARLOTTE,NC,MECKLENBURG
28231,"CHARLOTTE, NC",CHARLOTTE,NC,MECKLENBURG
28232,"CHARLOTTE, NC",CHARLOTTE,NC,MECKLENBURG
28233,"CHARLOTTE, NC",CHARLOTTE,NC,MECKLENBURG
28234,"CHARLOTTE, NC",CHARLOTTE,NC,MECKLENBURG
28235,"CHARLOTTE, NC",CHARLOTTE,NC,MECKLENBURG
28236,"CHARLOTTE, NC",CHARLOTTE,NC,MECKLENBURG
28237,"CHARLOTTE, NC",CHARLOTTE,NC,MECKLENBURG
28241,"CHARLOTTE, NC",CHARLOTTE,NC,MECKLENBURG
28244,"CHARLOTTE, NC",CHARLOTTE,NC,MECKLENBURG
28246,"CHARLOTTE, NC",CHARLOTTE,NC,MECKLENBURG
28247,"CHARLOTTE, NC",CHARLOTTE,NC,MECKLENBURG
28253,"CHARLOTTE, NC",CHARLOTTE,NC,MECKLENBURG
28254,"CHARLOTTE, NC",CHARLOTTE,NC,MECKLENBURG
28255,"CHARLOTTE, NC",CHARLOTTE,NC,MECKLENBURG
28256,"CHARLOTTE, NC",CHARLOTTE,NC,MECKLENBURG
28260,"CHARLOTTE, NC",CHARLOTTE,NC,MECKLENBURG
28262,"CHARLOTTE, NC",CHARLOTTE,NC,MECKLENBURG
28263,"CHARLOTTE, NC",CHARLOTTE,NC,MECKLENBURG
28265,"CHARLOTTE, NC",CHARLOTTE,NC,MECKLENBURG
28266,"CHARLOTTE, NC",CHARLOTTE,NC,MECKLENBURG
28269,"CHARLOTTE, NC",CHARLOTTE,NC,MECKLENBURG
28270,"CHARLOTTE, NC",CHARLOTTE,NC,MECKLENBURG
28271,"CHARLOTTE, NC",CHARLOTTE,NC,MECKLENBURG
28272,"CHARLOTTE, NC",CHARLOTTE,NC,MECKLENBURG
28273,"CHARLOTTE, NC",CHARLOTTE,NC,MECKLENBURG
28274,"CHARLOTTE, NC",CHARLOTTE,NC,MECKLENBURG
28277,"CHARLOTTE, NC",CHARLOTTE,NC,MECKLENBURG
28278,"CHARLOTTE, NC",CHARLOTTE,NC,MECKLENBURG
28280,"CHARLOTTE, NC",CHARLOTTE,NC,MECKLENBURG
28281,"CHARLOTTE, NC",CHARLOTTE,NC,MECKLENBURG
28282,"CHARLOTTE, NC",CHARLOTTE,NC,MECKLENBURG
28284,"CHARLOTTE, NC",CHARLOTTE,NC,MECKLENBURG
28285,"CHARLOTTE, NC",CHARLOTTE,NC,MECKLENBURG
28287,"CHARLOTTE, NC",CHARLOTTE,NC,MECKLENBURG
28288,"CHARLOTTE, NC",CHARLOTTE,NC,MECKLENBURG
28297,"CHARLOTTE, NC",CHARLOTTE,NC,MECKLENBURG
28299,"CHARLOTTE, NC",CHARLOTTE,NC,MECKLENBURG
28719,"CHEROKEE, NC",CHEROKEE,NC,SWAIN
28533,"CHERRY POINT, NC",CHERRY POINT,NC,CRAVEN
28021,"CHERRYVILLE, NC",CHERRYVILLE,NC,GASTON
28720,"CHIMNEY ROCK, NC",CHIMNEY ROCK,NC,RUTHERFORD
28023,"CHINA GROVE, NC",CHINA GROVE,NC,ROWAN
28521,"CHINQUAPIN, NC",CHINQUAPIN,NC,DUPLIN
27817,"CHOCOWINITY, NC",CHOCOWINITY,NC,BEAUFORT
28610,"CLAREMONT, NC",CLAREMONT,NC,CATAWBA
28432,"CLARENDON, NC",CLARENDON,NC,COLUMBUS
28433,"CLARKTON, NC",CLARKTON,NC,BLADEN
27520,"CLAYTON, NC",CLAYTON,NC,JOHNSTON
27527,"CLAYTON, NC",CLAYTON,NC,JOHNSTON
27528,"CLAYTON, NC",CLAYTON,NC,JOHNSTON
27012,"CLEMMONS, NC",CLEMMONS,NC,FORSYTH
27013,"CLEVELAND, NC",CLEVELAND,NC,ROWAN
28024,"CLIFFSIDE, NC",CLIFFSIDE,NC,RUTHERFORD
27233,"CLIMAX, NC",CLIMAX,NC,GUILFORD
28328,"CLINTON, NC",CLINTON,NC,SAMPSON
28329,"CLINTON, NC",CLINTON,NC,SAMPSON
28721,"CLYDE, NC",CLYDE,NC,HAYWOOD
27521,"COATS, NC",COATS,NC,HARNETT
27922,"COFIELD, NC",COFIELD,NC,HERTFORD
27923,"COINJOCK, NC",COINJOCK,NC,CURRITUCK
27924,"COLERAIN, NC",COLERAIN,NC,BERTIE
27235,"COLFAX, NC",COLFAX,NC,GUILFORD
28611,"COLLETTSVILLE, NC",COLLETTSVILLE,NC,CALDWELL
27925,"COLUMBIA, NC",COLUMBIA,NC,TYRRELL
28722,"COLUMBUS, NC",COLUMBUS,NC,POLK
27818,"COMO, NC",COMO,NC,HERTFORD
28025,"CONCORD, NC",CONCORD,NC,CABARRUS
28026,"CONCORD, NC",CONCORD,NC,CABARRUS
28027,"CONCORD, NC",CONCORD,NC,CABARRUS
27819,"CONETOE, NC",CONETOE,NC,EDGECOMBE
28612,"CONNELLY SPRINGS, NC",CONNELLY SPRINGS,NC,BURKE
28613,"CONOVER, NC",CONOVER,NC,CATAWBA
27820,"CONWAY, NC",CONWAY,NC,NORTHAMPTON
27014,"COOLEEMEE, NC",COOLEEMEE,NC,DAVIE
27926,"CORAPEAKE, NC",CORAPEAKE,NC,GATES
28330,"CORDOVA, NC",CORDOVA,NC,RICHMOND
28031,"CORNELIUS, NC",CORNELIUS,NC,MECKLENBURG
27927,"COROLLA, NC",COROLLA,NC,CURRITUCK
28434,"COUNCIL, NC",COUNCIL,NC,BLADEN
28523,"COVE CITY, NC",COVE CITY,NC,CRAVEN
28032,"CRAMERTON, NC",CRAMERTON,NC,GASTON
27522,"CREEDMOOR, NC",CREEDMOOR,NC,GRANVILLE
28615,"CRESTON, NC",CRESTON,NC,ASHE
27928,"CRESWELL, NC",CRESWELL,NC,WASHINGTON
28616,"CROSSNORE, NC",CROSSNORE,NC,AVERY
28033,"CROUSE, NC",CROUSE,NC,LINCOLN
28617,"CRUMPLER, NC",CRUMPLER,NC,ASHE
28723,"CULLOWHEE, NC",CULLOWHEE,NC,JACKSON
28331,"CUMBERLAND, NC",CUMBERLAND,NC,CUMBERLAND
27237,"CUMNOCK, NC",CUMNOCK,NC,LEE
28435,"CURRIE, NC",CURRIE,NC,PENDER
27929,"CURRITUCK, NC",CURRITUCK,NC,CURRITUCK
28034,"DALLAS, NC",DALLAS,NC,GASTON
28724,"DANA, NC",DANA,NC,HENDERSON
27016,"DANBURY, NC",DANBURY,NC,STOKES
28035,"DAVIDSON, NC",DAVIDSON,NC,MECKLENBURG
28036,"DAVIDSON, NC",DAVIDSON,NC,MECKLENBURG
28524,"DAVIS, NC",DAVIS,NC,CARTERET
28618,"DEEP GAP, NC",DEEP GAP,NC,WATAUGA
28525,"DEEP RUN, NC",DEEP RUN,NC,LENOIR
28436,"DELCO, NC",DELCO,NC,COLUMBUS
27239,"DENTON, NC",DENTON,NC,DAVIDSON
28037,"DENVER, NC",DENVER,NC,LINCOLN
28725,"DILLSBORO, NC",DILLSBORO,NC,JACKSON
27017,"DOBSON, NC",DOBSON,NC,SURRY
28526,"DOVER, NC",DOVER,NC,CRAVEN
28619,"DREXEL, NC",DREXEL,NC,BURKE
28332,"DUBLIN, NC",DUBLIN,NC,BLADEN
28333,"DUDLEY, NC",DUDLEY,NC,WAYNE
28334,"DUNN, NC",DUNN,NC,HARNETT
28335,"DUNN, NC",DUNN,NC,HARNETT
27701,"DURHAM, NC",DURHAM,NC,DURHAM
27702,"DURHAM, NC",DURHAM,NC,DURHAM
27703,"DURHAM, NC",DURHAM,NC,DURHAM
27704,"DURHAM, NC",DURHAM,NC,DURHAM
27705,"DURHAM, NC",DURHAM,NC,DURHAM
27706,"DURHAM, NC",DURHAM,NC,DURHAM
27707,"DURHAM, NC",DURHAM,NC,DURHAM
27708,"DURHAM, NC",DURHAM,NC,DURHAM
27709,"DURHAM, NC",DURHAM,NC,DURHAM
27710,"DURHAM, NC",DURHAM,NC,DURHAM
27711,"DURHAM, NC",DURHAM,NC,DURHAM
27712,"DURHAM, NC",DURHAM,NC,DURHAM
27713,"DURHAM, NC",DURHAM,NC,DURHAM
27715,"DURHAM, NC",DURHAM,NC,DURHAM
27717,"DURHAM, NC",DURHAM,NC,DURHAM
27722,"DURHAM, NC",DURHAM,NC,DURHAM
27242,"EAGLE SPRINGS, NC",EAGLE SPRINGS,NC,MOORE
28038,"EARL, NC",EARL,NC,CLEVELAND
27018,"EAST BEND, NC",EAST BEND,NC,YADKIN
28726,"EAST FLAT ROCK, NC",EAST FLAT ROCK,NC,HENDERSON
28039,"EAST SPENCER, NC",EAST SPENCER,NC,ROWAN
27288,"EDEN, NC",EDEN,NC,ROCKINGHAM
27289,"EDEN, NC",EDEN,NC,ROCKINGHAM
27932,"EDENTON, NC",EDENTON,NC,CHOWAN
28727,"EDNEYVILLE, NC",EDNEYVILLE,NC,HENDERSON
27821,"EDWARD, NC",EDWARD,NC,BEAUFORT
27243,"EFLAND, NC",EFLAND,NC,ORANGE
27906,"ELIZABETH CITY, NC",ELIZABETH CITY,NC,PASQUOTANK
27907,"ELIZABETH CITY, NC",ELIZABETH CITY,NC,PASQUOTANK
27909,"ELIZABETH CITY, NC",ELIZABETH CITY,NC,PASQUOTANK
28337,"ELIZABETHTOWN, NC",ELIZABETHTOWN,NC,BLADEN
28622,"ELK PARK, NC",ELK PARK,NC,AVERY
28621,"ELKIN, NC",ELKIN,NC,SURRY
28040,"ELLENBORO, NC",ELLENBORO,NC,RUTHERFORD
28338,"ELLERBE, NC",ELLERBE,NC,RICHMOND
27822,"ELM CITY, NC",ELM CITY,NC,WILSON
27244,"ELON, NC",ELON,NC,ALAMANCE
28594,"EMERALD ISLE, NC",EMERALD ISLE,NC,CARTERET
27823,"ENFIELD, NC",ENFIELD,NC,HALIFAX
27824,"ENGELHARD, NC",ENGELHARD,NC,HYDE
28728,"ENKA, NC",ENKA,NC,BUNCOMBE
28623,"ENNICE, NC",ENNICE,NC,ALLEGHANY
28527,"ERNUL, NC",ERNUL,NC,CRAVEN
28339,"ERWIN, NC",ERWIN,NC,HARNETT
27247,"ETHER, NC",ETHER,NC,MONTGOMERY
28729,"ETOWAH, NC",ETOWAH,NC,HENDERSON
27935,"EURE, NC",EURE,NC,GATES
27825,"EVERETTS, NC",EVERETTS,NC,MARTIN
28438,"EVERGREEN, NC",EVERGREEN,NC,COLUMBUS
28439,"FAIR BLUFF, NC",FAIR BLUFF,NC,COLUMBUS
27826,"FAIRFIELD, NC",FAIRFIELD,NC,HYDE
28340,"FAIRMONT, NC",FAIRMONT,NC,ROBESON
28730,"FAIRVIEW, NC",FAIRVIEW,NC,BUNCOMBE
28341,"FAISON, NC",FAISON,NC,DUPLIN
28041,"FAITH, NC",FAITH,NC,ROWAN
28342,"FALCON, NC",FALCON,NC,CUMBERLAND
27827,"FALKLAND, NC",FALKLAND,NC,PITT
28042,"FALLSTON, NC",FALLSTON,NC,CLEVELAND
27828,"FARMVILLE, NC",FARMVILLE,NC,PITT
28301,"FAYETTEVILLE, NC",FAYETTEVILLE,NC,CUMBERLAND
28302,"FAYETTEVILLE, NC",FAYETTEVILLE,NC,CUMBERLAND
28303,"FAYETTEVILLE, NC",FAYETTEVILLE,NC,CUMBERLAND
28304,"FAYETTEVILLE, NC",FAYETTEVILLE,NC,CUMBERLAND
28305,"FAYETTEVILLE, NC",FAYETTEVILLE,NC,CUMBERLAND
28306,"FAYETTEVILLE, NC",FAYETTEVILLE,NC,CUMBERLAND
28309,"FAYETTEVILLE, NC",FAYETTEVILLE,NC,CUMBERLAND
28311,"FAYETTEVILLE, NC",FAYETTEVILLE,NC,CUMBERLAND
28312,"FAYETTEVILLE, NC",FAYETTEVILLE,NC,CUMBERLAND
28314,"FAYETTEVILLE, NC",FAYETTEVILLE,NC,CUMBERLAND
28624,"FERGUSON, NC",FERGUSON,NC,WILKES
28731,"FLAT ROCK, NC",FLAT ROCK,NC,HENDERSON
28626,"FLEETWOOD, NC",FLEETWOOD,NC,ASHE
28732,"FLETCHER, NC",FLETCHER,NC,HENDERSON
28733,"FONTANA DAM, NC",FONTANA DAM,NC,GRAHAM
28043,"FOREST CITY, NC",FOREST CITY,NC,RUTHERFORD
28307,"FORT BRAGG, NC",FORT BRAGG,NC,CUMBERLAND
28310,"FORT BRAGG, NC",FORT BRAGG,NC,CUMBERLAND
27829,"FOUNTAIN, NC",FOUNTAIN,NC,PITT
27524,"FOUR OAKS, NC",FOUR OAKS,NC,JOHNSTON
28734,"FRANKLIN, NC",FRANKLIN,NC,MACON
28744,"FRANKLIN, NC",FRANKLIN,NC,MACON
27525,"FRANKLINTON, NC",FRANKLINTON,NC,FRANKLIN
27248,"FRANKLINVILLE, NC",FRANKLINVILLE,NC,RANDOLPH
27830,"FREMONT, NC",FREMONT,NC,WAYNE
27936,"FRISCO, NC",FRISCO,NC,DARE
27526,"FUQUAY VARINA, NC",FUQUAY VARINA,NC,WAKE
28441,"GARLAND, NC",GARLAND,NC,SAMPSON
27529,"GARNER, NC",GARNER,NC,WAKE
27831,"GARYSBURG, NC",GARYSBURG,NC,NORTHAMPTON
27832,"GASTON, NC",GASTON,NC,NORTHAMPTON
28052,"GASTONIA, NC",GASTONIA,NC,GASTON
28053,"GASTONIA, NC",GASTONIA,NC,GASTON
28054,"GASTONIA, NC",GASTONIA,NC,GASTON
28055,"GASTONIA, NC",GASTONIA,NC,GASTON
28056,"GASTONIA, NC",GASTONIA,NC,GASTON
27937,"GATES, NC",GATES,NC,GATES
27938,"GATESVILLE, NC",GATESVILLE,NC,GATES
27019,"GERMANTON, NC",GERMANTON,NC,STOKES
28735,"GERTON, NC",GERTON,NC,HENDERSON
28343,"GIBSON, NC",GIBSON,NC,SCOTLAND
27249,"GIBSONVILLE, NC",GIBSONVILLE,NC,GUILFORD
28627,"GLADE VALLEY, NC",GLADE VALLEY,NC,ALLEGHANY
28628,"GLEN ALPINE, NC",GLEN ALPINE,NC,BURKE
28629,"GLENDALE SPRINGS, NC",GLENDALE SPRINGS,NC,ASHE
28736,"GLENVILLE, NC",GLENVILLE,NC,JACKSON
28528,"GLOUCESTER, NC",GLOUCESTER,NC,CARTERET
28344,"GODWIN, NC",GODWIN,NC,SAMPSON
28071,"GOLD HILL, NC",GOLD HILL,NC,ROWAN
27530,"GOLDSBORO, NC",GOLDSBORO,NC,WAYNE
27531,"GOLDSBORO, NC",GOLDSBORO,NC,WAYNE
27532,"GOLDSBORO, NC",GOLDSBORO,NC,WAYNE
27533,"GOLDSBORO, NC",GOLDSBORO,NC,WAYNE
27534,"GOLDSBORO, NC",GOLDSBORO,NC,WAYNE
27252,"GOLDSTON, NC",GOLDSTON,NC,CHATHAM
27253,"GRAHAM, NC",GRAHAM,NC,ALAMANCE
27939,"GRANDY, NC",GRANDY,NC,CURRITUCK
28630,"GRANITE FALLS, NC",GRANITE FALLS,NC,CALDWELL
28072,"GRANITE QUARRY, NC",GRANITE QUARRY,NC,ROWAN
28529,"GRANTSBORO, NC",GRANTSBORO,NC,PAMLICO
28631,"GRASSY CREEK, NC",GRASSY CREEK,NC,ASHE
28740,"GREEN MOUNTAIN, NC",GREEN MOUNTAIN,NC,YANCEY
27401,"GREENSBORO, NC",GREENSBORO,NC,GUILFORD
27402,"GREENSBORO, NC",GREENSBORO,NC,GUILFORD
27403,"GREENSBORO, NC",GREENSBORO,NC,GUILFORD
27404,"GREENSBORO, NC",GREENSBORO,NC,GUILFORD
27405,"GREENSBORO, NC",GREENSBORO,NC,GUILFORD
27406,"GREENSBORO, NC",GREENSBORO,NC,GUILFORD
27407,"GREENSBORO, NC",GREENSBORO,NC,GUILFORD
27408,"GREENSBORO, NC",GREENSBORO,NC,GUILFORD
27409,"GREENSBORO, NC",GREENSBORO,NC,GUILFORD
27410,"GREENSBORO, NC",GREENSBORO,NC,GUILFORD
27411,"GREENSBORO, NC",GREENSBORO,NC,GUILFORD
27412,"GREENSBORO, NC",GREENSBORO,NC,GUILFORD
27415,"GREENSBORO, NC",GREENSBORO,NC,GUILFORD
27416,"GREENSBORO, NC",GREENSBORO,NC,GUILFORD
27417,"GREENSBORO, NC",GREENSBORO,NC,GUILFORD
27419,"GREENSBORO, NC",GREENSBORO,NC,GUILFORD
27420,"GREENSBORO, NC",GREENSBORO,NC,GUILFORD
27425,"GREENSBORO, NC",GREENSBORO,NC,GUILFORD
27427,"GREENSBORO, NC",GREENSBORO,NC,GUILFORD
27429,"GREENSBORO, NC",GREENSBORO,NC,GUILFORD
27435,"GREENSBORO, NC",GREENSBORO,NC,GUILFORD
27438,"GREENSBORO, NC",GREENSBORO,NC,GUILFORD
27455,"GREENSBORO, NC",GREENSBORO,NC,GUILFORD
27495,"GREENSBORO, NC",GREENSBORO,NC,GUILFORD
27497,"GREENSBORO, NC",GREENSBORO,NC,GUILFORD
27833,"GREENVILLE, NC",GREENVILLE,NC,PITT
27834,"GREENVILLE, NC",GREENVILLE,NC,PITT
27835,"GREENVILLE, NC",GREENVILLE,NC,PITT
27836,"GREENVILLE, NC",GREENVILLE,NC,PITT
27858,"GREENVILLE, NC",GREENVILLE,NC,PITT
28530,"GRIFTON, NC",GRIFTON,NC,PITT
27837,"GRIMESLAND, NC",GRIMESLAND,NC,PITT
28073,"GROVER, NC",GROVER,NC,CLEVELAND
27256,"GULF, NC",GULF,NC,CHATHAM
27839,"HALIFAX, NC",HALIFAX,NC,HALIFAX
28442,"HALLSBORO, NC",HALLSBORO,NC,COLUMBUS
27840,"HAMILTON, NC",HAMILTON,NC,MARTIN
28345,"HAMLET, NC",HAMLET,NC,RICHMOND
28443,"HAMPSTEAD, NC",HAMPSTEAD,NC,PENDER
27020,"HAMPTONVILLE, NC",HAMPTONVILLE,NC,YADKIN
27941,"HARBINGER, NC",HARBINGER,NC,CURRITUCK
28531,"HARKERS ISLAND, NC",HARKERS ISLAND,NC,CARTERET
28634,"HARMONY, NC",HARMONY,NC,IREDELL
28444,"HARRELLS, NC",HARRELLS,NC,SAMPSON
27942,"HARRELLSVILLE, NC",HARRELLSVILLE,NC,HERTFORD
28074,"HARRIS, NC",HARRIS,NC,RUTHERFORD
28075,"HARRISBURG, NC",HARRISBURG,NC,CABARRUS
27841,"HASSELL, NC",HASSELL,NC,MARTIN
27943,"HATTERAS, NC",HATTERAS,NC,DARE
28532,"HAVELOCK, NC",HAVELOCK,NC,CRAVEN
27258,"HAW RIVER, NC",HAW RIVER,NC,ALAMANCE
28904,"HAYESVILLE, NC",HAYESVILLE,NC,CLAY
28635,"HAYS, NC",HAYS,NC,WILKES
28738,"HAZELWOOD, NC",HAZELWOOD,NC,HAYWOOD
27536,"HENDERSON, NC",HENDERSON,NC,VANCE
27537,"HENDERSON, NC",HENDERSON,NC,VANCE
28739,"HENDERSONVILLE, NC",HENDERSONVILLE,NC,HENDERSON
28791,"HENDERSONVILLE, NC",HENDERSONVILLE,NC,HENDERSON
28792,"HENDERSONVILLE, NC",HENDERSONVILLE,NC,HENDERSON
28793,"HENDERSONVILLE, NC",HENDERSONVILLE,NC,HENDERSON
27842,"HENRICO, NC",HENRICO,NC,NORTHAMPTON
28076,"HENRIETTA, NC",HENRIETTA,NC,RUTHERFORD
27930,"HERTFORD, NC",HERTFORD,NC,PERQUIMANS
27944,"HERTFORD, NC",HERTFORD,NC,PERQUIMANS
28601,"HICKORY, NC",HICKORY,NC,CATAWBA
28602,"HICKORY, NC",HICKORY,NC,CATAWBA
28603,"HICKORY, NC",HICKORY,NC,CATAWBA
28636,"HIDDENITE, NC",HIDDENITE,NC,ALEXANDER
27260,"HIGH POINT, NC",HIGH POINT,NC,GUILFORD
27261,"HIGH POINT, NC",HIGH POINT,NC,GUILFORD
27262,"HIGH POINT, NC",HIGH POINT,NC,GUILFORD
27263,"HIGH POINT, NC",HIGH POINT,NC,GUILFORD
27264,"HIGH POINT, NC",HIGH POINT,NC,GUILFORD
27265,"HIGH POINT, NC",HIGH POINT,NC,GUILFORD
28077,"HIGH SHOALS, NC",HIGH SHOALS,NC,GASTON
27259,"HIGHFALLS, NC",HIGHFALLS,NC,MOORE
28741,"HIGHLANDS, NC",HIGHLANDS,NC,MACON
28637,"HILDEBRAN, NC",HILDEBRAN,NC,BURKE
27278,"HILLSBOROUGH, NC",HILLSBOROUGH,NC,ORANGE
27946,"HOBBSVILLE, NC",HOBBSVILLE,NC,GATES
27843,"HOBGOOD, NC",HOBGOOD,NC,HALIFAX
28537,"HOBUCKEN, NC",HOBUCKEN,NC,PAMLICO
28347,"HOFFMAN, NC",HOFFMAN,NC,RICHMOND
27844,"HOLLISTER, NC",HOLLISTER,NC,HALIFAX
28445,"HOLLY RIDGE, NC",HOLLY RIDGE,NC,ONSLOW
27540,"HOLLY SPRINGS, NC",HOLLY SPRINGS,NC,WAKE
28538,"HOOKERTON, NC",HOOKERTON,NC,GREENE
28348,"HOPE MILLS, NC",HOPE MILLS,NC,CUMBERLAND
28742,"HORSE SHOE, NC",HORSE SHOE,NC,HENDERSON
28743,"HOT SPRINGS, NC",HOT SPRINGS,NC,MADISON
28539,"HUBERT, NC",HUBERT,NC,ONSLOW
28638,"HUDSON, NC",HUDSON,NC,CALDWELL
28070,"HUNTERSVILLE, NC",HUNTERSVILLE,NC,MECKLENBURG
28078,"HUNTERSVILLE, NC",HUNTERSVILLE,NC,MECKLENBURG
27541,"HURDLE MILLS, NC",HURDLE MILLS,NC,PERSON
28666,"ICARD, NC",ICARD,NC,BURKE
28079,"INDIAN TRAIL, NC",INDIAN TRAIL,NC,UNION
28080,"IRON STATION, NC",IRON STATION,NC,LINCOLN
28447,"IVANHOE, NC",IVANHOE,NC,SAMPSON
27845,"JACKSON, NC",JACKSON,NC,NORTHAMPTON
27281,"JACKSON SPRINGS, NC",JACKSON SPRINGS,NC,MOORE
28540,"JACKSONVILLE, NC",JACKSONVILLE,NC,ONSLOW
28541,"JACKSONVILLE, NC",JACKSONVILLE,NC,ONSLOW
28546,"JACKSONVILLE, NC",JACKSONVILLE,NC,ONSLOW
27282,"JAMESTOWN, NC",JAMESTOWN,NC,GUILFORD
27846,"JAMESVILLE, NC",JAMESVILLE,NC,MARTIN
27947,"JARVISBURG, NC",JARVISBURG,NC,CURRITUCK
28640,"JEFFERSON, NC",JEFFERSON,NC,ASHE
28641,"JONAS RIDGE, NC",JONAS RIDGE,NC,BURKE
28642,"JONESVILLE, NC",JONESVILLE,NC,YADKIN
27283,"JULIAN, NC",JULIAN,NC,GUILFORD
28081,"KANNAPOLIS, NC",KANNAPOLIS,NC,CABARRUS
28082,"KANNAPOLIS, NC",KANNAPOLIS,NC,CABARRUS
28083,"KANNAPOLIS, NC",KANNAPOLIS,NC,CABARRUS
27847,"KELFORD, NC",KELFORD,NC,BERTIE
28448,"KELLY, NC",KELLY,NC,BLADEN
28349,"KENANSVILLE, NC",KENANSVILLE,NC,DUPLIN
27542,"KENLY, NC",KENLY,NC,JOHNSTON
27284,"KERNERSVILLE, NC",KERNERSVILLE,NC,FORSYTH
27285,"KERNERSVILLE, NC",KERNERSVILLE,NC,FORSYTH
27948,"KILL DEVIL HILLS, NC",KILL DEVIL HILLS,NC,DARE
27021,"KING, NC",KING,NC,STOKES
28086,"KINGS MOUNTAIN, NC",KINGS MOUNTAIN,NC,CLEVELAND
28501,"KINSTON, NC",KINSTON,NC,LENOIR
28502,"KINSTON, NC",KINSTON,NC,LENOIR
28503,"KINSTON, NC",KINSTON,NC,LENOIR
28504,"KINSTON, NC",KINSTON,NC,LENOIR
27543,"KIPLING, NC",KIPLING,NC,HARNETT
27544,"KITTRELL, NC",KITTRELL,NC,VANCE
27949,"KITTY HAWK, NC",KITTY HAWK,NC,DARE
27545,"KNIGHTDALE, NC",KNIGHTDALE,NC,WAKE
27950,"KNOTTS ISLAND, NC",KNOTTS ISLAND,NC,CURRITUCK
28449,"KURE BEACH, NC",KURE BEACH,NC,NEW HANOVER
28551,"LA GRANGE, NC",LA GRANGE,NC,LENOIR
28745,"LAKE JUNALUSKA, NC",LAKE JUNALUSKA,NC,HAYWOOD
28746,"LAKE LURE, NC",LAKE LURE,NC,RUTHERFORD
28747,"LAKE TOXAWAY, NC",LAKE TOXAWAY,NC,TRANSYLVANIA
28450,"LAKE WACCAMAW, NC",LAKE WACCAMAW,NC,COLUMBUS
28350,"LAKEVIEW, NC",LAKEVIEW,NC,MOORE
28088,"LANDIS, NC",LANDIS,NC,ROWAN
28643,"LANSING, NC",LANSING,NC,ASHE
28089,"LATTIMORE, NC",LATTIMORE,NC,CLEVELAND
28351,"LAUREL HILL, NC",LAUREL HILL,NC,SCOTLAND
28644,"LAUREL SPRINGS, NC",LAUREL SPRINGS,NC,ALLEGHANY
28352,"LAURINBURG, NC",LAURINBURG,NC,SCOTLAND
28353,"LAURINBURG, NC",LAURINBURG,NC,SCOTLAND
28090,"LAWNDALE, NC",LAWNDALE,NC,CLEVELAND
27022,"LAWSONVILLE, NC",LAWSONVILLE,NC,STOKES
27291,"LEASBURG, NC",LEASBURG,NC,CASWELL
28748,"LEICESTER, NC",LEICESTER,NC,BUNCOMBE
28451,"LELAND, NC",LELAND,NC,BRUNSWICK
28355,"LEMON SPRINGS, NC",LEMON SPRINGS,NC,LEE
28633,"LENOIR, NC",LENOIR,NC,CALDWELL
28645,"LENOIR, NC",LENOIR,NC,CALDWELL
27849,"LEWISTON WOODVILLE, NC",LEWISTON WOODVILLE,NC,BERTIE
27023,"LEWISVILLE, NC",LEWISVILLE,NC,FORSYTH
27292,"LEXINGTON, NC",LEXINGTON,NC,DAVIDSON
27293,"LEXINGTON, NC",LEXINGTON,NC,DAVIDSON
27295,"LEXINGTON, NC",LEXINGTON,NC,DAVIDSON
27298,"LIBERTY, NC",LIBERTY,NC,RANDOLPH
28091,"LILESVILLE, NC",LILESVILLE,NC,ANSON
27546,"LILLINGTON, NC",LILLINGTON,NC,HARNETT
28092,"LINCOLNTON, NC",LINCOLNTON,NC,LINCOLN
28093,"LINCOLNTON, NC",LINCOLNTON,NC,LINCOLN
28356,"LINDEN, NC",LINDEN,NC,CUMBERLAND
28646,"LINVILLE, NC",LINVILLE,NC,AVERY
28647,"LINVILLE FALLS, NC",LINVILLE FALLS,NC,BURKE
27299,"LINWOOD, NC",LINWOOD,NC,DAVIDSON
28749,"LITTLE SWITZERLAND, NC",LITTLE SWITZERLAND,NC,MCDOWELL
27850,"LITTLETON, NC",LITTLETON,NC,HALIFAX
28097,"LOCUST, NC",LOCUST,NC,STANLY
28452,"LONGWOOD, NC",LONGWOOD,NC,BRUNSWICK
27549,"LOUISBURG, NC",LOUISBURG,NC,FRANKLIN
28098,"LOWELL, NC",LOWELL,NC,GASTON
27024,"LOWGAP, NC",LOWGAP,NC,SURRY
28552,"LOWLAND, NC",LOWLAND,NC,PAMLICO
27851,"LUCAMA, NC",LUCAMA,NC,WILSON
28357,"LUMBER BRIDGE, NC",LUMBER BRIDGE,NC,ROBESON
28358,"LUMBERTON, NC",LUMBERTON,NC,ROBESON
28359,"LUMBERTON, NC",LUMBERTON,NC,ROBESON
28360,"LUMBERTON, NC",LUMBERTON,NC,ROBESON
28750,"LYNN, NC",LYNN,NC,POLK
27852,"MACCLESFIELD, NC",MACCLESFIELD,NC,EDGECOMBE
27551,"MACON, NC",MACON,NC,WARREN
27025,"MADISON, NC",MADISON,NC,ROCKINGHAM
28751,"MAGGIE VALLEY, NC",MAGGIE VALLEY,NC,HAYWOOD
28453,"MAGNOLIA, NC",MAGNOLIA,NC,DUPLIN
28650,"MAIDEN, NC",MAIDEN,NC,CATAWBA
27552,"MAMERS, NC",MAMERS,NC,HARNETT
27953,"MANNS HARBOR, NC",MANNS HARBOR,NC,DARE
27553,"MANSON, NC",MANSON,NC,VANCE
27954,"MANTEO, NC",MANTEO,NC,DARE
27956,"MAPLE, NC",MAPLE,NC,CURRITUCK
28454,"MAPLE HILL, NC",MAPLE HILL,NC,PENDER
28905,"MARBLE, NC",MARBLE,NC,CHEROKEE
27853,"MARGARETTSVILLE, NC",MARGARETTSVILLE,NC,NORTHAMPTON
28362,"MARIETTA, NC",MARIETTA,NC,ROBESON
28752,"MARION, NC",MARION,NC,MCDOWELL
28754,"MARS HILL, NC",MARS HILL,NC,MADISON
28753,"MARSHALL, NC",MARSHALL,NC,MADISON
28553,"MARSHALLBERG, NC",MARSHALLBERG,NC,CARTERET
28103,"MARSHVILLE, NC",MARSHVILLE,NC,UNION
28363,"MARSTON, NC",MARSTON,NC,RICHMOND
28105,"MATTHEWS, NC",MATTHEWS,NC,MECKLENBURG
28106,"MATTHEWS, NC",MATTHEWS,NC,MECKLENBURG
28104,"MATTHEWS, NC",MATTHEWS,NC,UNION
28554,"MAURY, NC",MAURY,NC,GREENE
28364,"MAXTON, NC",MAXTON,NC,ROBESON
27027,"MAYODAN, NC",MAYODAN,NC,ROCKINGHAM
28555,"MAYSVILLE, NC",MAYSVILLE,NC,JONES
28101,"MC ADENVILLE, NC",MC ADENVILLE,NC,GASTON
28102,"MC FARLAN, NC",MC FARLAN,NC,ANSON
28649,"MC GRADY, NC",MC GRADY,NC,WILKES
27301,"MC LEANSVILLE, NC",MC LEANSVILLE,NC,GUILFORD
28545,"MCCUTCHEON FIELD, NC",MCCUTCHEON FIELD,NC,ONSLOW
27302,"MEBANE, NC",MEBANE,NC,ALAMANCE
28556,"MERRITT, NC",MERRITT,NC,PAMLICO
27957,"MERRY HILL, NC",MERRY HILL,NC,BERTIE
28755,"MICAVILLE, NC",MICAVILLE,NC,YANCEY
27555,"MICRO, NC",MICRO,NC,JOHNSTON
27556,"MIDDLEBURG, NC",MIDDLEBURG,NC,VANCE
27557,"MIDDLESEX, NC",MIDDLESEX,NC,NASH
28107,"MIDLAND, NC",MIDLAND,NC,CABARRUS
28544,"MIDWAY PARK, NC",MIDWAY PARK,NC,ONSLOW
28756,"MILL SPRING, NC",MILL SPRING,NC,POLK
28651,"MILLERS CREEK, NC",MILLERS CREEK,NC,WILKES
28759,"MILLS RIVER, NC",MILLS RIVER,NC,HENDERSON
27305,"MILTON, NC",MILTON,NC,CASWELL
28108,"MINERAL SPRINGS, NC",MINERAL SPRINGS,NC,UNION
28652,"MINNEAPOLIS, NC",MINNEAPOLIS,NC,AVERY
28109,"MISENHEIMER, NC",MISENHEIMER,NC,STANLY
27028,"MOCKSVILLE, NC",MOCKSVILLE,NC,DAVIE
27559,"MONCURE, NC",MONCURE,NC,CHATHAM
28110,"MONROE, NC",MONROE,NC,UNION
28111,"MONROE, NC",MONROE,NC,UNION
28112,"MONROE, NC",MONROE,NC,UNION
28653,"MONTEZUMA, NC",MONTEZUMA,NC,AVERY
28757,"MONTREAT, NC",MONTREAT,NC,BUNCOMBE
28114,"MOORESBORO, NC",MOORESBORO,NC,CLEVELAND
28115,"MOORESVILLE, NC",MOORESVILLE,NC,IREDELL
28117,"MOORESVILLE, NC",MOORESVILLE,NC,IREDELL
28654,"MORAVIAN FALLS, NC",MORAVIAN FALLS,NC,WILKES
28557,"MOREHEAD CITY, NC",MOREHEAD CITY,NC,CARTERET
28655,"MORGANTON, NC",MORGANTON,NC,BURKE
28680,"MORGANTON, NC",MORGANTON,NC,BURKE
27560,"MORRISVILLE, NC",MORRISVILLE,NC,WAKE
28119,"MORVEN, NC",MORVEN,NC,ANSON
27030,"MOUNT AIRY, NC",MOUNT AIRY,NC,SURRY
27306,"MOUNT GILEAD, NC",MOUNT GILEAD,NC,MONTGOMERY
28120,"MOUNT HOLLY, NC",MOUNT HOLLY,NC,GASTON
28123,"MOUNT MOURNE, NC",MOUNT MOURNE,NC,IREDELL
28365,"MOUNT OLIVE, NC",MOUNT OLIVE,NC,WAYNE
28124,"MOUNT PLEASANT, NC",MOUNT PLEASANT,NC,CABARRUS
28125,"MOUNT ULLA, NC",MOUNT ULLA,NC,ROWAN
28758,"MOUNTAIN HOME, NC",MOUNTAIN HOME,NC,HENDERSON
27958,"MOYOCK, NC",MOYOCK,NC,CURRITUCK
27855,"MURFREESBORO, NC",MURFREESBORO,NC,HERTFORD
28906,"MURPHY, NC",MURPHY,NC,CHEROKEE
27959,"NAGS HEAD, NC",NAGS HEAD,NC,DARE
28455,"NAKINA, NC",NAKINA,NC,COLUMBUS
28760,"NAPLES, NC",NAPLES,NC,HENDERSON
27856,"NASHVILLE, NC",NASHVILLE,NC,NASH
28761,"NEBO, NC",NEBO,NC,MCDOWELL
28560,"NEW BERN, NC",NEW BERN,NC,CRAVEN
28561,"NEW BERN, NC",NEW BERN,NC,CRAVEN
28562,"NEW BERN, NC",NEW BERN,NC,CRAVEN
28563,"NEW BERN, NC",NEW BERN,NC,CRAVEN
28564,"NEW BERN, NC",NEW BERN,NC,CRAVEN
27562,"NEW HILL, NC",NEW HILL,NC,WAKE
28127,"NEW LONDON, NC",NEW LONDON,NC,STANLY
28126,"NEWELL, NC",NEWELL,NC,MECKLENBURG
28657,"NEWLAND, NC",NEWLAND,NC,AVERY
28570,"NEWPORT, NC",NEWPORT,NC,CARTERET
28658,"NEWTON, NC",NEWTON,NC,CATAWBA
28366,"NEWTON GROVE, NC",NEWTON GROVE,NC,SAMPSON
27563,"NORLINA, NC",NORLINA,NC,WARREN
28367,"NORMAN, NC",NORMAN,NC,RICHMOND
28656,"NORTH WILKESBORO, NC",NORTH WILKESBORO,NC,WILKES
28659,"NORTH WILKESBORO, NC",NORTH WILKESBORO,NC,WILKES
28128,"NORWOOD, NC",NORWOOD,NC,STANLY
27857,"OAK CITY, NC",OAK CITY,NC,MARTIN
28465,"OAK ISLAND, NC",OAK ISLAND,NC,BRUNSWICK
27310,"OAK RIDGE, NC",OAK RIDGE,NC,GUILFORD
28129,"OAKBORO, NC",OAKBORO,NC,STANLY
28469,"OCEAN ISLE BEACH, NC",OCEAN ISLE BEACH,NC,BRUNSWICK
27960,"OCRACOKE, NC",OCRACOKE,NC,HYDE
28762,"OLD FORT, NC",OLD FORT,NC,MCDOWELL
28660,"OLIN, NC",OLIN,NC,IREDELL
28368,"OLIVIA, NC",OLIVIA,NC,HARNETT
28571,"ORIENTAL, NC",ORIENTAL,NC,PAMLICO
28369,"ORRUM, NC",ORRUM,NC,ROBESON
28763,"OTTO, NC",OTTO,NC,MACON
27565,"OXFORD, NC",OXFORD,NC,GRANVILLE
27860,"PANTEGO, NC",PANTEGO,NC,BEAUFORT
28371,"PARKTON, NC",PARKTON,NC,ROBESON
28661,"PATTERSON, NC",PATTERSON,NC,CALDWELL
28130,"PAW CREEK, NC",PAW CREEK,NC,MECKLENBURG
28133,"PEACHLAND, NC",PEACHLAND,NC,ANSON
27311,"PELHAM, NC",PELHAM,NC,CASWELL
28372,"PEMBROKE, NC",PEMBROKE,NC,ROBESON
27862,"PENDLETON, NC",PENDLETON,NC,NORTHAMPTON
28765,"PENLAND, NC",PENLAND,NC,MITCHELL
28766,"PENROSE, NC",PENROSE,NC,TRANSYLVANIA
27040,"PFAFFTOWN, NC",PFAFFTOWN,NC,FORSYTH
27863,"PIKEVILLE, NC",PIKEVILLE,NC,WAYNE
27041,"PILOT MOUNTAIN, NC",PILOT MOUNTAIN,NC,SURRY
27042,"PINE HALL, NC",PINE HALL,NC,STOKES
27568,"PINE LEVEL, NC",PINE LEVEL,NC,JOHNSTON
28373,"PINEBLUFF, NC",PINEBLUFF,NC,MOORE
28370,"PINEHURST, NC",PINEHURST,NC,MOORE
28374,"PINEHURST, NC",PINEHURST,NC,MOORE
28662,"PINEOLA, NC",PINEOLA,NC,AVERY
27864,"PINETOPS, NC",PINETOPS,NC,EDGECOMBE
27865,"PINETOWN, NC",PINETOWN,NC,BEAUFORT
28134,"PINEVILLE, NC",PINEVILLE,NC,MECKLENBURG
28663,"PINEY CREEK, NC",PINEY CREEK,NC,ALLEGHANY
28572,"PINK HILL, NC",PINK HILL,NC,LENOIR
27043,"PINNACLE, NC",PINNACLE,NC,STOKES
28768,"PISGAH FOREST, NC",PISGAH FOREST,NC,TRANSYLVANIA
27312,"PITTSBORO, NC",PITTSBORO,NC,CHATHAM
27313,"PLEASANT GARDEN, NC",PLEASANT GARDEN,NC,GUILFORD
27866,"PLEASANT HILL, NC",PLEASANT HILL,NC,NORTHAMPTON
28664,"PLUMTREE, NC",PLUMTREE,NC,AVERY
27962,"PLYMOUTH, NC",PLYMOUTH,NC,WASHINGTON
27964,"POINT HARBOR, NC",POINT HARBOR,NC,CURRITUCK
28135,"POLKTON, NC",POLKTON,NC,ANSON
28136,"POLKVILLE, NC",POLKVILLE,NC,CLEVELAND
28573,"POLLOCKSVILLE, NC",POLLOCKSVILLE,NC,JONES
28308,"POPE ARMY AIRFIELD, NC",POPE ARMY AIRFIELD,NC,CUMBERLAND
27965,"POPLAR BRANCH, NC",POPLAR BRANCH,NC,CURRITUCK
27867,"POTECASI, NC",POTECASI,NC,NORTHAMPTON
27966,"POWELLS POINT, NC",POWELLS POINT,NC,CURRITUCK
27967,"POWELLSVILLE, NC",POWELLSVILLE,NC,BERTIE
27569,"PRINCETON, NC",PRINCETON,NC,JOHNSTON
28375,"PROCTORVILLE, NC",PROCTORVILLE,NC,ROBESON
27314,"PROSPECT HILL, NC",PROSPECT HILL,NC,CASWELL
27315,"PROVIDENCE, NC",PROVIDENCE,NC,CASWELL
28665,"PURLEAR, NC",PURLEAR,NC,WILKES
28376,"RAEFORD, NC",RAEFORD,NC,HOKE
27601,"RALEIGH, NC",RALEIGH,NC,WAKE
27602,"RALEIGH, NC",RALEIGH,NC,WAKE
27603,"RALEIGH, NC",RALEIGH,NC,WAKE
27604,"RALEIGH, NC",RALEIGH,NC,WAKE
27605,"RALEIGH, NC",RALEIGH,NC,WAKE
27606,"RALEIGH, NC",RALEIGH,NC,WAKE
27607,"RALEIGH, NC",RALEIGH,NC,WAKE
27608,"RALEIGH, NC",RALEIGH,NC,WAKE
27609,"RALEIGH, NC",RALEIGH,NC,WAKE
27610,"RALEIGH, NC",RALEIGH,NC,WAKE
27611,"RALEIGH, NC",RALEIGH,NC,WAKE
27612,"RALEIGH, NC",RALEIGH,NC,WAKE
27613,"RALEIGH, NC",RALEIGH,NC,WAKE
27614,"RALEIGH, NC",RALEIGH,NC,WAKE
27615,"RALEIGH, NC",RALEIGH,NC,WAKE
27616,"RALEIGH, NC",RALEIGH,NC,WAKE
27617,"RALEIGH, NC",RALEIGH,NC,WAKE
27619,"RALEIGH, NC",RALEIGH,NC,WAKE
27620,"RALEIGH, NC",RALEIGH,NC,WAKE
27622,"RALEIGH, NC",RALEIGH,NC,WAKE
27623,"RALEIGH, NC",RALEIGH,NC,WAKE
27624,"RALEIGH, NC",RALEIGH,NC,WAKE
27625,"RALEIGH, NC",RALEIGH,NC,WAKE
27627,"RALEIGH, NC",RALEIGH,NC,WAKE
27628,"RALEIGH, NC",RALEIGH,NC,WAKE
27629,"RALEIGH, NC",RALEIGH,NC,WAKE
27635,"RALEIGH, NC",RALEIGH,NC,WAKE
27636,"RALEIGH, NC",RALEIGH,NC,WAKE
27650,"RALEIGH, NC",RALEIGH,NC,WAKE
27656,"RALEIGH, NC",RALEIGH,NC,WAKE
27658,"RALEIGH, NC",RALEIGH,NC,WAKE
27661,"RALEIGH, NC",RALEIGH,NC,WAKE
27668,"RALEIGH, NC",RALEIGH,NC,WAKE
27675,"RALEIGH, NC",RALEIGH,NC,WAKE
27676,"RALEIGH, NC",RALEIGH,NC,WAKE
27695,"RALEIGH, NC",RALEIGH,NC,WAKE
27697,"RALEIGH, NC",RALEIGH,NC,WAKE
27699,"RALEIGH, NC",RALEIGH,NC,WAKE
27316,"RAMSEUR, NC",RAMSEUR,NC,RANDOLPH
27317,"RANDLEMAN, NC",RANDLEMAN,NC,RANDOLPH
27868,"RED OAK, NC",RED OAK,NC,NASH
28377,"RED SPRINGS, NC",RED SPRINGS,NC,ROBESON
27320,"REIDSVILLE, NC",REIDSVILLE,NC,ROCKINGHAM
27323,"REIDSVILLE, NC",REIDSVILLE,NC,ROCKINGHAM
28378,"REX, NC",REX,NC,ROBESON
28667,"RHODHISS, NC",RHODHISS,NC,CALDWELL
27869,"RICH SQUARE, NC",RICH SQUARE,NC,NORTHAMPTON
28137,"RICHFIELD, NC",RICHFIELD,NC,STANLY
28574,"RICHLANDS, NC",RICHLANDS,NC,ONSLOW
28770,"RIDGECREST, NC",RIDGECREST,NC,BUNCOMBE
27570,"RIDGEWAY, NC",RIDGEWAY,NC,WARREN
28456,"RIEGELWOOD, NC",RIEGELWOOD,NC,COLUMBUS
27870,"ROANOKE RAPIDS, NC",ROANOKE RAPIDS,NC,HALIFAX
28668,"ROARING GAP, NC",ROARING GAP,NC,ALLEGHANY
28669,"ROARING RIVER, NC",ROARING RIVER,NC,WILKES
27325,"ROBBINS, NC",ROBBINS,NC,MOORE
28771,"ROBBINSVILLE, NC",ROBBINSVILLE,NC,GRAHAM
27871,"ROBERSONVILLE, NC",ROBERSONVILLE,NC,MARTIN
28379,"ROCKINGHAM, NC",ROCKINGHAM,NC,RICHMOND
28380,"ROCKINGHAM, NC",ROCKINGHAM,NC,RICHMOND
28138,"ROCKWELL, NC",ROCKWELL,NC,ROWAN
27801,"ROCKY MOUNT, NC",ROCKY MOUNT,NC,EDGECOMBE
27802,"ROCKY MOUNT, NC",ROCKY MOUNT,NC,EDGECOMBE
27803,"ROCKY MOUNT, NC",ROCKY MOUNT,NC,NASH
27804,"ROCKY MOUNT, NC",ROCKY MOUNT,NC,NASH
28457,"ROCKY POINT, NC",ROCKY POINT,NC,PENDER
27968,"RODANTHE, NC",RODANTHE,NC,DARE
27571,"ROLESVILLE, NC",ROLESVILLE,NC,WAKE
28670,"RONDA, NC",RONDA,NC,WILKES
27970,"ROPER, NC",ROPER,NC,WASHINGTON
28458,"ROSE HILL, NC",ROSE HILL,NC,DUPLIN
28382,"ROSEBORO, NC",ROSEBORO,NC,SAMPSON
28772,"ROSMAN, NC",ROSMAN,NC,TRANSYLVANIA
27572,"ROUGEMONT, NC",ROUGEMONT,NC,DURHAM
28383,"ROWLAND, NC",ROWLAND,NC,ROBESON
27573,"ROXBORO, NC",ROXBORO,NC,PERSON
27574,"ROXBORO, NC",ROXBORO,NC,PERSON
27872,"ROXOBEL, NC",ROXOBEL,NC,BERTIE
27326,"RUFFIN, NC",RUFFIN,NC,ROCKINGHAM
27045,"RURAL HALL, NC",RURAL HALL,NC,FORSYTH
27094,"RURAL HALL, NC",RURAL HALL,NC,FORSYTH
28671,"RUTHERFORD COLLEGE, NC",RUTHERFORD COLLEGE,NC,BURKE
28139,"RUTHERFORDTON, NC",RUTHERFORDTON,NC,RUTHERFORD
28384,"SAINT PAULS, NC",SAINT PAULS,NC,ROBESON
28385,"SALEMBURG, NC",SALEMBURG,NC,SAMPSON
28144,"SALISBURY, NC",SALISBURY,NC,ROWAN
28145,"SALISBURY, NC",SALISBURY,NC,ROWAN
28146,"SALISBURY, NC",SALISBURY,NC,ROWAN
28147,"SALISBURY, NC",SALISBURY,NC,ROWAN
28575,"SALTER PATH, NC",SALTER PATH,NC,CARTERET
28773,"SALUDA, NC",SALUDA,NC,POLK
27972,"SALVO, NC",SALVO,NC,DARE
27046,"SANDY RIDGE, NC",SANDY RIDGE,NC,STOKES
27330,"SANFORD, NC",SANFORD,NC,LEE
27331,"SANFORD, NC",SANFORD,NC,LEE
27332,"SANFORD, NC",SANFORD,NC,LEE
28774,"SAPPHIRE, NC",SAPPHIRE,NC,TRANSYLVANIA
27873,"SARATOGA, NC",SARATOGA,NC,WILSON
27340,"SAXAPAHAW, NC",SAXAPAHAW,NC,ALAMANCE
28775,"SCALY MOUNTAIN, NC",SCALY MOUNTAIN,NC,MACON
27874,"SCOTLAND NECK, NC",SCOTLAND NECK,NC,HALIFAX
28699,"SCOTTS, NC",SCOTTS,NC,IREDELL
28672,"SCOTTVILLE, NC",SCOTTVILLE,NC,ASHE
27875,"SCRANTON, NC",SCRANTON,NC,HYDE
27876,"SEABOARD, NC",SEABOARD,NC,NORTHAMPTON
27341,"SEAGROVE, NC",SEAGROVE,NC,RANDOLPH
28577,"SEALEVEL, NC",SEALEVEL,NC,CARTERET
27342,"SEDALIA, NC",SEDALIA,NC,GUILFORD
27576,"SELMA, NC",SELMA,NC,JOHNSTON
27343,"SEMORA, NC",SEMORA,NC,PERSON
28578,"SEVEN SPRINGS, NC",SEVEN SPRINGS,NC,WAYNE
27877,"SEVERN, NC",SEVERN,NC,NORTHAMPTON
28459,"SHALLOTTE, NC",SHALLOTTE,NC,BRUNSWICK
28470,"SHALLOTTE, NC",SHALLOTTE,NC,BRUNSWICK
28386,"SHANNON, NC",SHANNON,NC,ROBESON
27878,"SHARPSBURG, NC",SHARPSBURG,NC,NASH
27973,"SHAWBORO, NC",SHAWBORO,NC,CURRITUCK
28150,"SHELBY, NC",SHELBY,NC,CLEVELAND
28151,"SHELBY, NC",SHELBY,NC,CLEVELAND
28152,"SHELBY, NC",SHELBY,NC,CLEVELAND
28673,"SHERRILLS FORD, NC",SHERRILLS FORD,NC,CATAWBA
27974,"SHILOH, NC",SHILOH,NC,CAMDEN
27344,"SILER CITY, NC",SILER CITY,NC,CHATHAM
27047,"SILOAM, NC",SILOAM,NC,SURRY
27879,"SIMPSON, NC",SIMPSON,NC,PITT
27880,"SIMS, NC",SIMS,NC,WILSON
28776,"SKYLAND, NC",SKYLAND,NC,BUNCOMBE
27577,"SMITHFIELD, NC",SMITHFIELD,NC,JOHNSTON
28579,"SMYRNA, NC",SMYRNA,NC,CARTERET
28460,"SNEADS FERRY, NC",SNEADS FERRY,NC,ONSLOW
27349,"SNOW CAMP, NC",SNOW CAMP,NC,ALAMANCE
28580,"SNOW HILL, NC",SNOW HILL,NC,GREENE
27350,"SOPHIA, NC",SOPHIA,NC,RANDOLPH
27976,"SOUTH MILLS, NC",SOUTH MILLS,NC,CAMDEN
28387,"SOUTHERN PINES, NC",SOUTHERN PINES,NC,MOORE
28388,"SOUTHERN PINES, NC",SOUTHERN PINES,NC,MOORE
27351,"SOUTHMONT, NC",SOUTHMONT,NC,DAVIDSON
28461,"SOUTHPORT, NC",SOUTHPORT,NC,BRUNSWICK
28675,"SPARTA, NC",SPARTA,NC,ALLEGHANY
27881,"SPEED, NC",SPEED,NC,EDGECOMBE
28159,"SPENCER, NC",SPENCER,NC,ROWAN
28160,"SPINDALE, NC",SPINDALE,NC,RUTHERFORD
27882,"SPRING HOPE, NC",SPRING HOPE,NC,NASH
28390,"SPRING LAKE, NC",SPRING LAKE,NC,CUMBERLAND
28777,"SPRUCE PINE, NC",SPRUCE PINE,NC,MITCHELL
28581,"STACY, NC",STACY,NC,CARTERET
27355,"STALEY, NC",STALEY,NC,RANDOLPH
28163,"STANFIELD, NC",STANFIELD,NC,STANLY
28164,"STANLEY, NC",STANLEY,NC,GASTON
27883,"STANTONSBURG, NC",STANTONSBURG,NC,WILSON
27356,"STAR, NC",STAR,NC,MONTGOMERY
28676,"STATE ROAD, NC",STATE ROAD,NC,SURRY
28625,"STATESVILLE, NC",STATESVILLE,NC,IREDELL
28677,"STATESVILLE, NC",STATESVILLE,NC,IREDELL
28687,"STATESVILLE, NC",STATESVILLE,NC,IREDELL
28391,"STEDMAN, NC",STEDMAN,NC,CUMBERLAND
28582,"STELLA, NC",STELLA,NC,CARTERET
27581,"STEM, NC",STEM,NC,GRANVILLE
27884,"STOKES, NC",STOKES,NC,PITT
27357,"STOKESDALE, NC",STOKESDALE,NC,GUILFORD
27048,"STONEVILLE, NC",STONEVILLE,NC,ROCKINGHAM
28583,"STONEWALL, NC",STONEWALL,NC,PAMLICO
28678,"STONY POINT, NC",STONY POINT,NC,ALEXANDER
27582,"STOVALL, NC",STOVALL,NC,GRANVILLE
27978,"STUMPY POINT, NC",STUMPY POINT,NC,DARE
28679,"SUGAR GROVE, NC",SUGAR GROVE,NC,WATAUGA
27358,"SUMMERFIELD, NC",SUMMERFIELD,NC,GUILFORD
27979,"SUNBURY, NC",SUNBURY,NC,GATES
28468,"SUNSET BEACH, NC",SUNSET BEACH,NC,BRUNSWICK
28462,"SUPPLY, NC",SUPPLY,NC,BRUNSWICK
28778,"SWANNANOA, NC",SWANNANOA,NC,BUNCOMBE
27885,"SWANQUARTER, NC",SWANQUARTER,NC,HYDE
28584,"SWANSBORO, NC",SWANSBORO,NC,ONSLOW
27359,"SWEPSONVILLE, NC",SWEPSONVILLE,NC,ALAMANCE
28779,"SYLVA, NC",SYLVA,NC,JACKSON
28463,"TABOR CITY, NC",TABOR CITY,NC,COLUMBUS
28392,"TAR HEEL, NC",TAR HEEL,NC,BLADEN
28543,"TARAWA TERRACE, NC",TARAWA TERRACE,NC,ONSLOW
27886,"TARBORO, NC",TARBORO,NC,EDGECOMBE
28681,"TAYLORSVILLE, NC",TAYLORSVILLE,NC,ALEXANDER
28464,"TEACHEY, NC",TEACHEY,NC,DUPLIN
28682,"TERRELL, NC",TERRELL,NC,CATAWBA
27360,"THOMASVILLE, NC",THOMASVILLE,NC,DAVIDSON
27361,"THOMASVILLE, NC",THOMASVILLE,NC,DAVIDSON
28683,"THURMOND, NC",THURMOND,NC,WILKES
27887,"TILLERY, NC",TILLERY,NC,HALIFAX
27583,"TIMBERLAKE, NC",TIMBERLAKE,NC,PERSON
27050,"TOBACCOVILLE, NC",TOBACCOVILLE,NC,FORSYTH
28684,"TODD, NC",TODD,NC,ASHE
28781,"TOPTON, NC",TOPTON,NC,CHEROKEE
27584,"TOWNSVILLE, NC",TOWNSVILLE,NC,VANCE
28685,"TRAPHILL, NC",TRAPHILL,NC,WILKES
28585,"TRENTON, NC",TRENTON,NC,JONES
27370,"TRINITY, NC",TRINITY,NC,RANDOLPH
28166,"TROUTMAN, NC",TROUTMAN,NC,IREDELL
27371,"TROY, NC",TROY,NC,MONTGOMERY
28782,"TRYON, NC",TRYON,NC,POLK
28783,"TUCKASEGEE, NC",TUCKASEGEE,NC,JACKSON
28393,"TURKEY, NC",TURKEY,NC,SAMPSON
28784,"TUXEDO, NC",TUXEDO,NC,HENDERSON
27980,"TYNER, NC",TYNER,NC,CHOWAN
28689,"UNION GROVE, NC",UNION GROVE,NC,IREDELL
28167,"UNION MILLS, NC",UNION MILLS,NC,RUTHERFORD
28690,"VALDESE, NC",VALDESE,NC,BURKE
28168,"VALE, NC",VALE,NC,LINCOLN
28691,"VALLE CRUCIS, NC",VALLE CRUCIS,NC,WATAUGA
28586,"VANCEBORO, NC",VANCEBORO,NC,CRAVEN
28587,"VANDEMERE, NC",VANDEMERE,NC,PAMLICO
28394,"VASS, NC",VASS,NC,MOORE
27586,"VAUGHAN, NC",VAUGHAN,NC,WARREN
28692,"VILAS, NC",VILAS,NC,WATAUGA
28169,"WACO, NC",WACO,NC,CLEVELAND
28395,"WADE, NC",WADE,NC,CUMBERLAND
28170,"WADESBORO, NC",WADESBORO,NC,ANSON
28396,"WAGRAM, NC",WAGRAM,NC,SCOTLAND
27587,"WAKE FOREST, NC",WAKE FOREST,NC,WAKE
27588,"WAKE FOREST, NC",WAKE FOREST,NC,WAKE
27051,"WALKERTOWN, NC",WALKERTOWN,NC,FORSYTH
28466,"WALLACE, NC",WALLACE,NC,DUPLIN
27373,"WALLBURG, NC",WALLBURG,NC,DAVIDSON
27052,"WALNUT COVE, NC",WALNUT COVE,NC,STOKES
27888,"WALSTONBURG, NC",WALSTONBURG,NC,GREENE
27981,"WANCHESE, NC",WANCHESE,NC,DARE
28909,"WARNE, NC",WARNE,NC,CLAY
28693,"WARRENSVILLE, NC",WARRENSVILLE,NC,ASHE
27589,"WARRENTON, NC",WARRENTON,NC,WARREN
28398,"WARSAW, NC",WARSAW,NC,DUPLIN
27889,"WASHINGTON, NC",WASHINGTON,NC,BEAUFORT
27982,"WAVES, NC",WAVES,NC,DARE
28173,"WAXHAW, NC",WAXHAW,NC,UNION
28785,"WAYNESVILLE, NC",WAYNESVILLE,NC,HAYWOOD
28786,"WAYNESVILLE, NC",WAYNESVILLE,NC,HAYWOOD
28787,"WEAVERVILLE, NC",WEAVERVILLE,NC,BUNCOMBE
28788,"WEBSTER, NC",WEBSTER,NC,JACKSON
27374,"WELCOME, NC",WELCOME,NC,DAVIDSON
27890,"WELDON, NC",WELDON,NC,HALIFAX
27591,"WENDELL, NC",WENDELL,NC,WAKE
27375,"WENTWORTH, NC",WENTWORTH,NC,ROCKINGHAM
27376,"WEST END, NC",WEST END,NC,MOORE
28694,"WEST JEFFERSON, NC",WEST JEFFERSON,NC,ASHE
27053,"WESTFIELD, NC",WESTFIELD,NC,SURRY
27891,"WHITAKERS, NC",WHITAKERS,NC,NASH
28399,"WHITE OAK, NC",WHITE OAK,NC,BLADEN
28472,"WHITEVILLE, NC",WHITEVILLE,NC,COLUMBUS
27377,"WHITSETT, NC",WHITSETT,NC,GUILFORD
28789,"WHITTIER, NC",WHITTIER,NC,JACKSON
28697,"WILKESBORO, NC",WILKESBORO,NC,WILKES
28478,"WILLARD, NC",WILLARD,NC,PENDER
27892,"WILLIAMSTON, NC",WILLIAMSTON,NC,MARTIN
28589,"WILLISTON, NC",WILLISTON,NC,CARTERET
27592,"WILLOW SPRING, NC",WILLOW SPRING,NC,WAKE
28401,"WILMINGTON, NC",WILMINGTON,NC,NEW HANOVER
28402,"WILMINGTON, NC",WILMINGTON,NC,NEW HANOVER
28403,"WILMINGTON, NC",WILMINGTON,NC,NEW HANOVER
28404,"WILMINGTON, NC",WILMINGTON,NC,NEW HANOVER
28405,"WILMINGTON, NC",WILMINGTON,NC,NEW HANOVER
28406,"WILMINGTON, NC",WILMINGTON,NC,NEW HANOVER
28407,"WILMINGTON, NC",WILMINGTON,NC,NEW HANOVER
28408,"WILMINGTON, NC",WILMINGTON,NC,NEW HANOVER
28409,"WILMINGTON, NC",WILMINGTON,NC,NEW HANOVER
28411,"WILMINGTON, NC",WILMINGTON,NC,NEW HANOVER
28412,"WILMINGTON, NC",WILMINGTON,NC,NEW HANOVER
27893,"WILSON, NC",WILSON,NC,WILSON
27894,"WILSON, NC",WILSON,NC,WILSON
27895,"WILSON, NC",WILSON,NC,WILSON
27896,"WILSON, NC",WILSON,NC,WILSON
27593,"WILSONS MILLS, NC",WILSONS MILLS,NC,JOHNSTON
27983,"WINDSOR, NC",WINDSOR,NC,BERTIE
27985,"WINFALL, NC",WINFALL,NC,PERQUIMANS
28174,"WINGATE, NC",WINGATE,NC,UNION
28479,"WINNABOW, NC",WINNABOW,NC,BRUNSWICK
27101,"WINSTON SALEM, NC",WINSTON SALEM,NC,FORSYTH
27102,"WINSTON SALEM, NC",WINSTON SALEM,NC,FORSYTH
27103,"WINSTON SALEM, NC",WINSTON SALEM,NC,FORSYTH
27104,"WINSTON SALEM, NC",WINSTON SALEM,NC,FORSYTH
27105,"WINSTON SALEM, NC",WINSTON SALEM,NC,FORSYTH
27106,"WINSTON SALEM, NC",WINSTON SALEM,NC,FORSYTH
27107,"WINSTON SALEM, NC",WINSTON SALEM,NC,FORSYTH
27108,"WINSTON SALEM, NC",WINSTON SALEM,NC,FORSYTH
27109,"WINSTON SALEM, NC",WINSTON SALEM,NC,FORSYTH
27110,"WINSTON SALEM, NC",WINSTON SALEM,NC,FORSYTH
27113,"WINSTON SALEM, NC",WINSTON SALEM,NC,FORSYTH
27114,"WINSTON SALEM, NC",WINSTON SALEM,NC,FORSYTH
27115,"WINSTON SALEM, NC",WINSTON SALEM,NC,FORSYTH
27116,"WINSTON SALEM, NC",WINSTON SALEM,NC,FORSYTH
27117,"WINSTON SALEM, NC",WINSTON SALEM,NC,FORSYTH
27120,"WINSTON SALEM, NC",WINSTON SALEM,NC,FORSYTH
27127,"WINSTON SALEM, NC",WINSTON SALEM,NC,FORSYTH
27150,"WINSTON SALEM, NC",WINSTON SALEM,NC,FORSYTH
27152,"WINSTON SALEM, NC",WINSTON SALEM,NC,FORSYTH
27155,"WINSTON SALEM, NC",WINSTON SALEM,NC,FORSYTH
27157,"WINSTON SALEM, NC",WINSTON SALEM,NC,FORSYTH
27199,"WINSTON SALEM, NC",WINSTON SALEM,NC,FORSYTH
28590,"WINTERVILLE, NC",WINTERVILLE,NC,PITT
27986,"WINTON, NC",WINTON,NC,HERTFORD
27594,"WISE, NC",WISE,NC,WARREN
27897,"WOODLAND, NC",WOODLAND,NC,NORTHAMPTON
27054,"WOODLEAF, NC",WOODLEAF,NC,ROWAN
28480,"WRIGHTSVILLE BEACH, NC",WRIGHTSVILLE BEACH,NC,NEW HANOVER
27055,"YADKINVILLE, NC",YADKINVILLE,NC,YADKIN
27379,"YANCEYVILLE, NC",YANCEYVILLE,NC,CASWELL
27596,"YOUNGSVILLE, NC",YOUNGSVILLE,NC,FRANKLIN
27597,"ZEBULON, NC",ZEBULON,NC,WAKE
28698,"ZIONVILLE, NC",ZIONVILLE,NC,WATAUGA
28790,"ZIRCONIA, NC",ZIRCONIA,NC,HENDERSON
